CCSDS_OMM_VERS = 2.0
CREATION_DATE  = 
ORIGINATOR     = 

OBJECT_NAME    = ATLAS CENTAUR R/B
OBJECT_ID      = 1972-065B
CENTER_NAME    = EARTH
REF_FRAME      = TEME
TIME_SYSTEM    = UTC
MEAN_ELEMENT_THEORY = SGP/SGP4

EPOCH          = 2026-02-03T13:42:41.616000
MEAN_MOTION    = 14.77583282
ECCENTRICITY   = .00331128
INCLINATION    = 35.0006
RA_OF_ASC_NODE = 145.6819
ARG_OF_PERICENTER = 82.7342
MEAN_ANOMALY   = 277.7120

EPHEMERIS_TYPE = 0
CLASSIFICATION_TYPE = U
NORAD_CAT_ID   = 6155
ELEMENT_SET_NO = 999
REV_AT_EPOCH   = 83621
BSTAR          = .22604476E-3
MEAN_MOTION_DOT = .1632E-4
MEAN_MOTION_DDOT = 0

CCSDS_OMM_VERS = 2.0
CREATION_DATE  = 
ORIGINATOR     = 

OBJECT_NAME    = SL-8 R/B
OBJECT_ID      = 1975-112B
CENTER_NAME    = EARTH
REF_FRAME      = TEME
TIME_SYSTEM    = UTC
MEAN_ELEMENT_THEORY = SGP/SGP4

EPOCH          = 2026-02-03T13:23:23.347968
MEAN_MOTION    = 14.38186254
ECCENTRICITY   = .00156536
INCLINATION    = 74.0596
RA_OF_ASC_NODE = 81.7041
ARG_OF_PERICENTER = 186.3246
MEAN_ANOMALY   = 173.7713

EPHEMERIS_TYPE = 0
CLASSIFICATION_TYPE = U
NORAD_CAT_ID   = 8459
ELEMENT_SET_NO = 999
REV_AT_EPOCH   = 62696
BSTAR          = .86333348E-4
MEAN_MOTION_DOT = .236E-5
MEAN_MOTION_DDOT = 0

CCSDS_OMM_VERS = 2.0
CREATION_DATE  = 
ORIGINATOR     = 

OBJECT_NAME    = SL-3 R/B
OBJECT_ID      = 1977-057B
CENTER_NAME    = EARTH
REF_FRAME      = TEME
TIME_SYSTEM    = UTC
MEAN_ELEMENT_THEORY = SGP/SGP4

EPOCH          = 2026-02-03T14:04:19.610976
MEAN_MOTION    = 15.44485852
ECCENTRICITY   = .00083014
INCLINATION    = 97.5721
RA_OF_ASC_NODE = 205.0433
ARG_OF_PERICENTER = 51.6482
MEAN_ANOMALY   = 308.5511

EPHEMERIS_TYPE = 0
CLASSIFICATION_TYPE = U
NORAD_CAT_ID   = 10114
ELEMENT_SET_NO = 999
REV_AT_EPOCH   = 66306
BSTAR          = .32334708E-3
MEAN_MOTION_DOT = .14916E-3
MEAN_MOTION_DDOT = 0

CCSDS_OMM_VERS = 2.0
CREATION_DATE  = 
ORIGINATOR     = 

OBJECT_NAME    = SEASAT 1
OBJECT_ID      = 1978-064A
CENTER_NAME    = EARTH
REF_FRAME      = TEME
TIME_SYSTEM    = UTC
MEAN_ELEMENT_THEORY = SGP/SGP4

EPOCH          = 2026-02-03T12:46:24.525120
MEAN_MOTION    = 14.46130653
ECCENTRICITY   = .00014569
INCLINATION    = 108.0164
RA_OF_ASC_NODE = 53.8149
ARG_OF_PERICENTER = 291.2075
MEAN_ANOMALY   = 68.8915

EPHEMERIS_TYPE = 0
CLASSIFICATION_TYPE = U
NORAD_CAT_ID   = 10967
ELEMENT_SET_NO = 999
REV_AT_EPOCH   = 50157
BSTAR          = .14082127E-3
MEAN_MOTION_DOT = .366E-5
MEAN_MOTION_DDOT = 0

CCSDS_OMM_VERS = 2.0
CREATION_DATE  = 
ORIGINATOR     = 

OBJECT_NAME    = SL-14 R/B
OBJECT_ID      = 1979-011B
CENTER_NAME    = EARTH
REF_FRAME      = TEME
TIME_SYSTEM    = UTC
MEAN_ELEMENT_THEORY = SGP/SGP4

EPOCH          = 2026-02-03T07:22:22.501632
MEAN_MOTION    = 14.91862959
ECCENTRICITY   = .00163788
INCLINATION    = 82.5259
RA_OF_ASC_NODE = 129.1921
ARG_OF_PERICENTER = 167.2348
MEAN_ANOMALY   = 192.9290

EPHEMERIS_TYPE = 0
CLASSIFICATION_TYPE = U
NORAD_CAT_ID   = 11267
ELEMENT_SET_NO = 999
REV_AT_EPOCH   = 52365
BSTAR          = .76816592E-4
MEAN_MOTION_DOT = .803E-5
MEAN_MOTION_DDOT = 0

CCSDS_OMM_VERS = 2.0
CREATION_DATE  = 
ORIGINATOR     = 

OBJECT_NAME    = SL-8 R/B
OBJECT_ID      = 1979-089B
CENTER_NAME    = EARTH
REF_FRAME      = TEME
TIME_SYSTEM    = UTC
MEAN_ELEMENT_THEORY = SGP/SGP4

EPOCH          = 2026-02-03T11:33:41.153184
MEAN_MOTION    = 14.42327882
ECCENTRICITY   = .00163418
INCLINATION    = 74.0696
RA_OF_ASC_NODE = 154.3625
ARG_OF_PERICENTER = 331.5850
MEAN_ANOMALY   = 28.4414

EPHEMERIS_TYPE = 0
CLASSIFICATION_TYPE = U
NORAD_CAT_ID   = 11574
ELEMENT_SET_NO = 999
REV_AT_EPOCH   = 43117
BSTAR          = .10549634E-3
MEAN_MOTION_DOT = .322E-5
MEAN_MOTION_DDOT = 0

CCSDS_OMM_VERS = 2.0
CREATION_DATE  = 
ORIGINATOR     = 

OBJECT_NAME    = SL-14 R/B
OBJECT_ID      = 1980-005B
CENTER_NAME    = EARTH
REF_FRAME      = TEME
TIME_SYSTEM    = UTC
MEAN_ELEMENT_THEORY = SGP/SGP4

EPOCH          = 2026-02-03T13:35:12.246144
MEAN_MOTION    = 14.90881877
ECCENTRICITY   = .00141133
INCLINATION    = 82.5171
RA_OF_ASC_NODE = 339.5943
ARG_OF_PERICENTER = 278.7267
MEAN_ANOMALY   = 81.2353

EPHEMERIS_TYPE = 0
CLASSIFICATION_TYPE = U
NORAD_CAT_ID   = 11672
ELEMENT_SET_NO = 999
REV_AT_EPOCH   = 47140
BSTAR          = .85289197E-4
MEAN_MOTION_DOT = .866E-5
MEAN_MOTION_DDOT = 0

CCSDS_OMM_VERS = 2.0
CREATION_DATE  = 
ORIGINATOR     = 

OBJECT_NAME    = SL-8 R/B
OBJECT_ID      = 1981-003B
CENTER_NAME    = EARTH
REF_FRAME      = TEME
TIME_SYSTEM    = UTC
MEAN_ELEMENT_THEORY = SGP/SGP4

EPOCH          = 2026-02-03T06:48:13.503168
MEAN_MOTION    = 15.09670787
ECCENTRICITY   = .0264497
INCLINATION    = 82.9399
RA_OF_ASC_NODE = 321.8064
ARG_OF_PERICENTER = 298.9322
MEAN_ANOMALY   = 58.5613

EPHEMERIS_TYPE = 0
CLASSIFICATION_TYPE = U
NORAD_CAT_ID   = 12139
ELEMENT_SET_NO = 999
REV_AT_EPOCH   = 30948
BSTAR          = .657315E-3
MEAN_MOTION_DOT = .24756E-3
MEAN_MOTION_DDOT = 0

CCSDS_OMM_VERS = 2.0
CREATION_DATE  = 
ORIGINATOR     = 

OBJECT_NAME    = SL-3 R/B
OBJECT_ID      = 1981-046B
CENTER_NAME    = EARTH
REF_FRAME      = TEME
TIME_SYSTEM    = UTC
MEAN_ELEMENT_THEORY = SGP/SGP4

EPOCH          = 2026-02-03T10:42:00.899136
MEAN_MOTION    = 15.41016267
ECCENTRICITY   = .00204394
INCLINATION    = 81.2352
RA_OF_ASC_NODE = 330.8232
ARG_OF_PERICENTER = 134.2352
MEAN_ANOMALY   = 226.0573

EPHEMERIS_TYPE = 0
CLASSIFICATION_TYPE = U
NORAD_CAT_ID   = 12465
ELEMENT_SET_NO = 999
REV_AT_EPOCH   = 43315
BSTAR          = .33075138E-3
MEAN_MOTION_DOT = .13782E-3
MEAN_MOTION_DDOT = 0

CCSDS_OMM_VERS = 2.0
CREATION_DATE  = 
ORIGINATOR     = 

OBJECT_NAME    = SL-3 R/B
OBJECT_ID      = 1981-103B
CENTER_NAME    = EARTH
REF_FRAME      = TEME
TIME_SYSTEM    = UTC
MEAN_ELEMENT_THEORY = SGP/SGP4

EPOCH          = 2026-02-03T13:36:14.347872
MEAN_MOTION    = 15.20954315
ECCENTRICITY   = .00140919
INCLINATION    = 81.1558
RA_OF_ASC_NODE = 253.4563
ARG_OF_PERICENTER = 43.3114
MEAN_ANOMALY   = 316.9222

EPHEMERIS_TYPE = 0
CLASSIFICATION_TYPE = U
NORAD_CAT_ID   = 12904
ELEMENT_SET_NO = 999
REV_AT_EPOCH   = 96804
BSTAR          = .24712414E-3
MEAN_MOTION_DOT = .551E-4
MEAN_MOTION_DDOT = 0

CCSDS_OMM_VERS = 2.0
CREATION_DATE  = 
ORIGINATOR     = 

OBJECT_NAME    = SL-3 R/B
OBJECT_ID      = 1982-013B
CENTER_NAME    = EARTH
REF_FRAME      = TEME
TIME_SYSTEM    = UTC
MEAN_ELEMENT_THEORY = SGP/SGP4

EPOCH          = 2026-02-03T14:09:03.801312
MEAN_MOTION    = 15.21630541
ECCENTRICITY   = .00218607
INCLINATION    = 81.1735
RA_OF_ASC_NODE = 200.7213
ARG_OF_PERICENTER = 295.8158
MEAN_ANOMALY   = 64.0818

EPHEMERIS_TYPE = 0
CLASSIFICATION_TYPE = U
NORAD_CAT_ID   = 13068
ELEMENT_SET_NO = 999
REV_AT_EPOCH   = 39916
BSTAR          = .24783506E-3
MEAN_MOTION_DOT = .5658E-4
MEAN_MOTION_DDOT = 0

CCSDS_OMM_VERS = 2.0
CREATION_DATE  = 
ORIGINATOR     = 

OBJECT_NAME    = SL-3 R/B
OBJECT_ID      = 1982-039B
CENTER_NAME    = EARTH
REF_FRAME      = TEME
TIME_SYSTEM    = UTC
MEAN_ELEMENT_THEORY = SGP/SGP4

EPOCH          = 2026-02-03T14:18:11.610144
MEAN_MOTION    = 15.09888464
ECCENTRICITY   = .00300871
INCLINATION    = 81.1621
RA_OF_ASC_NODE = 255.2575
ARG_OF_PERICENTER = 75.9948
MEAN_ANOMALY   = 284.4619

EPHEMERIS_TYPE = 0
CLASSIFICATION_TYPE = U
NORAD_CAT_ID   = 13154
ELEMENT_SET_NO = 999
REV_AT_EPOCH   = 37649
BSTAR          = .15407065E-3
MEAN_MOTION_DOT = .2545E-4
MEAN_MOTION_DDOT = 0

