ATLAS CENTAUR R/B       
1 06155U 72065B   26034.57131500  .00001632  00000+0  22604-3 0  9992
2 06155  35.0006 145.6819 0033112  82.7342 277.7120 14.77583282836216
SL-8 R/B                
1 08459U 75112B   26034.55790912  .00000236  00000+0  86333-4 0  9992
2 08459  74.0596  81.7041 0015653 186.3246 173.7713 14.38186254626960
SL-3 R/B                
1 10114U 77057B   26034.58633809  .00014916  00000+0  32335-3 0  9999
2 10114  97.5721 205.0433 0008301  51.6482 308.5511 15.44485852663065
SEASAT 1                
1 10967U 78064A   26034.53222830  .00000366  00000+0  14082-3 0  9990
2 10967 108.0164  53.8149 0001456 291.2075  68.8915 14.46130653501575
SL-14 R/B               
1 11267U 79011B   26034.30720488  .00000803  00000+0  76817-4 0  9995
2 11267  82.5259 129.1921 0016378 167.2348 192.9290 14.91862959523658
SL-8 R/B                
1 11574U 79089B   26034.48172631  .00000322  00000+0  10550-3 0  9998
2 11574  74.0696 154.3625 0016341 331.5850  28.4414 14.42327882431178
SL-14 R/B               
1 11672U 80005B   26034.56611396  .00000866  00000+0  85289-4 0  9997
2 11672  82.5171 339.5943 0014113 278.7267  81.2353 14.90881877471409
SL-8 R/B                
1 12139U 81003B   26034.28348962  .00024756  00000+0  65731-3 0  9993
2 12139  82.9399 321.8064 0264497 298.9322  58.5613 15.09670787309481
SL-3 R/B                
1 12465U 81046B   26034.44584374  .00013782  00000+0  33075-3 0  9992
2 12465  81.2352 330.8232 0020439 134.2352 226.0573 15.41016267433154
SL-3 R/B                
1 12904U 81103B   26034.56683273  .00005510  00000+0  24712-3 0  9993
2 12904  81.1558 253.4563 0014091  43.3114 316.9222 15.20954315968042
SL-3 R/B                
1 13068U 82013B   26034.58962733  .00005658  00000+0  24784-3 0  9991
2 13068  81.1735 200.7213 0021860 295.8158  64.0818 15.21630541399168
SL-3 R/B                
1 13154U 82039B   26034.59596771  .00002545  00000+0  15407-3 0  9995
2 13154  81.1621 255.2575 0030087  75.9948 284.4619 15.09888464376492
